{
  "norad_id": 66259,
  "name": "STARLINK-35529",
  "history": [
    {
      "epoch": "2026-03-28T12:59:48.409728",
      "apogee_km": 475.72021677825614,
      "perigee_km": 474.5818856329515,
      "latitude_deg": -51.74145602569334,
      "longitude_deg": 137.8871219200082,
      "semi_major_axis_km": 6853.288051205604,
      "eccentricity": 8.305e-05,
      "inclination_deg": 53.159,
      "raan_deg": 196.263,
      "arg_perigee_deg": 96.8943,
      "mean_anomaly_deg": 263.2153,
      "mean_motion_rev_day": 15.30221441
    }
  ]
}