{"fetched_at":"2026-03-29T02:12:04Z","count":15717,"tles":[{"name":"STARLINK-35529","line1":"1 66259U 25245AB  26087.54153252  .00039469  00000+0  13368-2 0  9999","line2":"2 66259  53.1590 196.2630 0000830  96.8943 263.2153 15.30221441 24146","category":"Starlink"}]}